NORAD_CAT_ID,OBJECT_NAME,OBJECT_TYPE,EPOCH,MEAN_MOTION,ECCENTRICITY,INCLINATION,RA_OF_ASC_NODE,ARG_OF_PERICENTER,MEAN_ANOMALY,BSTAR,MEAN_MOTION_DOT,MEAN_MOTION_DDOT,TLE_LINE0,TLE_LINE1,TLE_LINE2,SEMIMAJOR_AXIS,PERIOD,APOGEE,PERIGEE,DECAYED
54179.0,STARLINK-5122,PAYLOAD,2024-08-04 20:48:23,15.08852857,0.0001046,53.213,95.9191,86.1064,274.0048,0.00042884,6.546e-05,0.0,0 STARLINK-5122,1 54179U 22141Y   24217.86694198  .00006546  00000-0  42884-3 0  9993,2 54179  53.2130  95.9191 0001046  86.1064 274.0048 15.08852857 98250,6917.841,95.437,540.43,538.982,0.0
54179.0,STARLINK-5122,PAYLOAD,2024-08-04 22:23:46,15.08850877,0.0001094,53.2133,95.6218,83.5949,276.5168,0.00038067,5.777e-05,0.0,0 STARLINK-5122,1 54179U 22141Y   24217.93318229  .00005777  00000-0  38067-3 0  9992,2 54179  53.2133  95.6218 0001094  83.5949 276.5168 15.08850877 98032,6917.847,95.437,540.469,538.955,0.0
54179.0,STARLINK-5122,PAYLOAD,2024-08-05 20:39:11,15.08839508,0.0001754,53.2181,91.4576,122.4132,237.703,2.7315e-05,1.47e-06,0.0,0 STARLINK-5122,1 54179U 22141Y   24218.86054584  .00000147  00000-0  27315-4 0  9997,2 54179  53.2181  91.4576 0001754 122.4132 237.7030 15.08839508 98402,6917.882,95.438,540.96,538.533,0.0
54179.0,STARLINK-5122,PAYLOAD,2024-08-05 22:14:34,15.08835872,0.0001637,53.2168,91.1616,110.2667,249.8501,-5.8405e-05,-1.217e-05,0.0,0 STARLINK-5122,1 54179U 22141Y   24218.92678612 -.00001217  00000-0 -58405-4 0  9993,2 54179  53.2168  91.1616 0001637 110.2667 249.8501 15.08835872 98189,6917.893,95.438,540.89,538.626,0.0
54179.0,STARLINK-5122,PAYLOAD,2024-08-06 22:05:21,15.08841262,0.0001642,53.2174,86.6999,110.0553,250.0616,-4.6525e-05,-1.028e-05,0.0,0 STARLINK-5122,1 54179U 22141Y   24219.92038784 -.00001028  00000-0 -46525-4 0  9994,2 54179  53.2174  86.6999 0001642 110.0553 250.0616 15.08841262 98335,6917.877,95.437,540.877,538.606,0.0
54179.0,STARLINK-5122,PAYLOAD,2024-08-07 20:20:45,15.0884622,0.0001664,53.2171,82.5368,115.4493,244.6672,0.00033159,4.994e-05,0.0,0 STARLINK-5122,1 54179U 22141Y   24220.84774775  .00004994  00000-0  33159-3 0  9995,2 54179  53.2171  82.5368 0001664 115.4493 244.6672 15.08846220 98478,6917.861,95.437,540.878,538.575,0.0
54179.0,STARLINK-5122,PAYLOAD,2024-08-08 21:46:55,15.0884488,0.0001426,53.2168,77.782,105.4072,254.7077,0.00013501,1.862e-05,0.0,0 STARLINK-5122,1 54179U 22141Y   24221.90758820  .00001862  00000-0  13501-3 0  9996,2 54179  53.2168  77.7820 0001426 105.4072 254.7077 15.08844880 98865,6917.865,95.437,540.717,538.744,0.0
54179.0,STARLINK-5122,PAYLOAD,2024-08-09 07:19:14,15.08838289,0.0001693,53.2163,75.9933,93.1061,267.0125,1.6557e-05,-2.5e-07,0.0,0 STARLINK-5122,1 54179U 22141Y   24222.30503340 -.00000025  00000-0  16557-4 0  9992,2 54179  53.2163  75.9933 0001693  93.1061 267.0125 15.08838289 98926,6917.886,95.438,540.922,538.579,0.0
54179.0,STARLINK-5122,PAYLOAD,2024-08-09 20:02:19,15.08844819,0.0001336,53.216,73.6119,80.1993,279.915,8.1607e-05,1.011e-05,0.0,0 STARLINK-5122,1 54179U 22141Y   24222.83494792  .00001011  00000-0  81607-4 0  9993,2 54179  53.2160  73.6119 0001336  80.1993 279.9150 15.08844819 98777,6917.866,95.437,540.655,538.806,0.0
54179.0,STARLINK-5122,PAYLOAD,2024-08-09 23:13:05,15.08859096,0.0001089,53.2162,73.0196,101.3055,258.806,0.00030416,4.559e-05,0.0,0 STARLINK-5122,1 54179U 22141Y   24222.96742106  .00004559  00000-0  30416-3 0  9993,2 54179  53.2162  73.0196 0001089 101.3055 258.8060 15.08859096 99026,6917.822,95.436,540.44,538.934,0.0
54179.0,STARLINK-5122,PAYLOAD,2024-08-10 13:31:34,15.08837724,0.0001298,53.2163,70.3433,92.6216,267.4924,-4.0699e-05,-9.36e-06,0.0,0 STARLINK-5122,1 54179U 22141Y   24223.56359012 -.00000936  00000-0 -40699-4 0  9992,2 54179  53.2163  70.3433 0001298  92.6216 267.4924 15.08837724 98886,6917.887,95.438,540.65,538.854,0.0
54179.0,STARLINK-5122,PAYLOAD,2024-08-10 19:53:06,15.08846863,0.000156,53.2179,69.1556,95.5482,264.5688,0.00018617,2.677e-05,0.0,0 STARLINK-5122,1 54179U 22141Y   24223.82854787  .00002677  00000-0  18617-3 0  9996,2 54179  53.2179  69.1556 0001560  95.5482 264.5688 15.08846863 99154,6917.859,95.437,540.804,538.645,0.0
54179.0,STARLINK-5122,PAYLOAD,2024-08-11 13:22:21,15.0884045,0.0001743,53.2166,65.8832,99.3307,260.7882,0.00019656,2.842e-05,0.0,0 STARLINK-5122,1 54179U 22141Y   24224.55719195  .00002842  00000-0  19656-3 0  9998,2 54179  53.2166  65.8832 0001743  99.3307 260.7882 15.08840450 99263,6917.879,95.438,540.95,538.538,0.0
54179.0,STARLINK-5122,PAYLOAD,2024-08-11 19:43:53,15.08852396,0.0001856,53.2143,64.6977,83.276,276.8443,0.00044268,6.767e-05,0.0,0 STARLINK-5122,1 54179U 22141Y   24224.82214872  .00006767  00000-0  44268-3 0  9997,2 54179  53.2143  64.6977 0001856  83.2760 276.8443 15.08852396 99077,6917.842,95.437,540.991,538.424,0.0
54179.0,STARLINK-5122,PAYLOAD,2024-08-12 06:51:35,15.0885423,2.79e-05,53.2167,62.6104,130.3752,229.7264,0.00053729,8.277e-05,0.0,0 STARLINK-5122,1 54179U 22141Y   24225.28582352  .00008277  00000-0  53729-3 0  9999,2 54179  53.2167  62.6104 0000279 130.3752 229.7264 15.08854230 99376,6917.837,95.437,539.895,539.509,0.0
54179.0,STARLINK-5122,PAYLOAD,2024-08-12 19:34:40,15.08877496,0.0002576,53.2132,60.2304,92.4494,267.6793,0.0009825,0.00015399,0.0,0 STARLINK-5122,1 54179U 22141Y   24225.81574148  .00015399  00000-0  98250-3 0  9993,2 54179  53.2132  60.2304 0002576  92.4494 267.6793 15.08877496 99453,6917.766,95.435,541.413,537.849,0.0
54179.0,STARLINK-5122,PAYLOAD,2024-08-12 21:10:03,15.08875808,0.0001213,53.2181,59.9378,74.3585,285.7541,0.0010977,0.00017242,0.0,0 STARLINK-5122,1 54179U 22141Y   24225.88197951  .00017242  00000-0  10977-2 0  9991,2 54179  53.2181  59.9378 0001213  74.3585 285.7541 15.08875808 99233,6917.771,95.435,540.475,538.797,0.0
54179.0,STARLINK-5122,PAYLOAD,2024-08-13 19:25:30,15.08804521,0.0002838,53.2093,55.7702,101.3918,258.7393,-0.00027206,-4.612e-05,0.0,0 STARLINK-5122,1 54179U 22141Y   24226.80937505 -.00004612  00000-0 -27206-3 0  9994,2 54179  53.2093  55.7702 0002838 101.3918 258.7393 15.08804521 99605,6917.989,95.44,541.817,537.891,0.0
54179.0,STARLINK-5122,PAYLOAD,2024-08-13 22:36:16,15.08796817,7.36e-05,53.2183,55.1776,108.4778,251.6294,-0.00032745,-5.489e-05,0.0,0 STARLINK-5122,1 54179U 22141Y   24226.94185838 -.00005489  00000-0 -32745-3 0  9990,2 54179  53.2183  55.1776 0000736 108.4778 251.6294 15.08796817 99393,6918.012,95.44,540.387,539.368,0.0
54179.0,STARLINK-5122,PAYLOAD,2024-08-14 17:40:54,15.08824452,0.0001459,53.2178,51.6097,85.572,274.5439,0.00098403,0.00015401,0.0,0 STARLINK-5122,1 54179U 22141Y   24227.73674550  .00015401  00000-0  98403-3 0  9998,2 54179  53.2178  51.6097 0001459  85.5720 274.5439 15.08824452 99740,6917.928,95.439,540.802,538.784,0.0
54179.0,STARLINK-5122,PAYLOAD,2024-08-14 19:16:18,15.08841315,0.0001678,53.2178,51.3131,81.5345,278.5837,0.00034192,5.158e-05,0.0,0 STARLINK-5122,1 54179U 22141Y   24227.80298668  .00005158  00000-0  34192-3 0  9991,2 54179  53.2178  51.3131 0001678  81.5345 278.5837 15.08841315 99527,6917.876,95.437,540.902,538.581,0.0
54179.0,STARLINK-5122,PAYLOAD,2024-08-15 04:48:36,15.08850259,0.0001731,53.2182,49.5286,82.1713,277.9475,0.00041874,6.384e-05,0.0,0 STARLINK-5122,1 54179U 22141Y   24228.20042339  .00006384  00000-0  41874-3 0  9995,2 54179  53.2182  49.5286 0001731  82.1713 277.9475 15.08850259 99582,6917.849,95.437,540.912,538.517,0.0
54179.0,STARLINK-5122,PAYLOAD,2024-08-15 19:07:03,15.08869417,0.0001561,53.2171,46.8524,80.473,279.6439,0.00061833,9.574e-05,0.0,0 STARLINK-5122,1 54179U 22141Y   24228.79657135  .00009574  00000-0  61833-3 0  9996,2 54179  53.2171  46.8524 0001561  80.4730 279.6439 15.08869417 99907,6917.79,95.436,540.735,538.576,0.0
54179.0,STARLINK-5122,PAYLOAD,2024-08-16 04:39:21,15.08869404,0.0001168,53.2164,45.0696,77.7349,282.3774,0.00040666,6.195e-05,0.0,0 STARLINK-5122,1 54179U 22141Y   24229.19400452  .00006195  00000-0  40666-3 0  9996,2 54179  53.2164  45.0696 0001168  77.7349 282.3774 15.08869404 99738,6917.791,95.436,540.464,538.848,0.0
54179.0,STARLINK-5122,PAYLOAD,2024-08-17 20:24:00,15.08814358,3.04e-05,53.2161,37.6307,284.3821,75.7138,-0.00056323,-9.233e-05,0.0,0 STARLINK-5122,1 54179U 22141Y   24230.85000773 -.00009233  00000-0 -56323-3 0  9998,2 54179  53.2161  37.6307 0000304 284.3821  75.7138 15.08814358100215,6917.959,95.439,540.034,539.613,0.0
54179.0,STARLINK-5122,PAYLOAD,2024-08-18 17:04:02,15.08847425,0.0001201,53.2176,33.7685,54.5637,305.5468,0.001241,0.00019522,0.0,0 STARLINK-5122,1 54179U 22141Y   24231.71113700  .00019522  00000-0  12410-2 0  9997,2 54179  53.2176  33.7685 0001201  54.5637 305.5468 15.08847425100341,6917.858,95.437,540.554,538.892,0.0
54179.0,STARLINK-5122,PAYLOAD,2024-08-19 04:11:44,15.08853924,0.0001695,53.2191,31.6903,45.2642,314.8487,0.00090728,0.00014186,0.0,0 STARLINK-5122,1 54179U 22141Y   24232.17481489  .00014186  00000-0  90728-3 0  9990,2 54179  53.2191  31.6903 0001695  45.2642 314.8487 15.08853924100411,6917.838,95.437,540.875,538.53,0.0
54179.0,STARLINK-5122,PAYLOAD,2024-08-19 18:30:11,15.08856899,0.0001602,53.2181,29.0121,55.0901,305.0242,0.00035888,5.431e-05,0.0,0 STARLINK-5122,1 54179U 22141Y   24232.77096762  .00005431  00000-0  35888-3 0  9991,2 54179  53.2181  29.0121 0001602  55.0901 305.0242 15.08856899100503,6917.829,95.436,540.802,538.585,0.0
54179.0,STARLINK-5122,PAYLOAD,2024-08-20 04:02:30,15.08848047,0.0001638,53.2182,27.2281,56.1653,303.9495,0.0004372,6.678e-05,0.0,0 STARLINK-5122,1 54179U 22141Y   24233.16840898  .00006678  00000-0  43720-3 0  9990,2 54179  53.2182  27.2281 0001638  56.1653 303.9495 15.08848047100565,6917.856,95.437,540.854,538.588,0.0
54179.0,STARLINK-5122,PAYLOAD,2024-08-20 13:34:48,15.08853524,0.0001383,53.2181,25.4408,68.0397,292.0742,-7.5187e-05,-1.485e-05,0.0,0 STARLINK-5122,1 54179U 22141Y   24233.56584119 -.00001485  00000-0 -75187-4 0  9991,2 54179  53.2181  25.4408 0001383  68.0397 292.0742 15.08853524100399,6917.839,95.437,540.661,538.747,0.0
